[{"OBJECT_NAME":"ICEYE-X21","OBJECT_ID":"2023-001AS","EPOCH":"2026-03-09T21:59:09.131424","MEAN_MOTION":15.76746514,"ECCENTRICITY":0.00038894,"INCLINATION":97.3381,"RA_OF_ASC_NODE":147.8147,"ARG_OF_PERICENTER":74.7456,"MEAN_ANOMALY":285.424,"EPHEMERIS_TYPE":0,"CLASSIFICATION_TYPE":"U","NORAD_CAT_ID":55049,"ELEMENT_SET_NO":999,"REV_AT_EPOCH":17785,"BSTAR":0.00056259315,"MEAN_MOTION_DOT":0.00090659,"MEAN_MOTION_DDOT":0},{"OBJECT_NAME":"STARLINK-36579","OBJECT_ID":"2026-014K","EPOCH":"2026-03-09T15:26:20.084928","MEAN_MOTION":15.75203205,"ECCENTRICITY":9.56e-5,"INCLINATION":97.2836,"RA_OF_ASC_NODE":313.5361,"ARG_OF_PERICENTER":55.8418,"MEAN_ANOMALY":304.2938,"EPHEMERIS_TYPE":0,"CLASSIFICATION_TYPE":"U","NORAD_CAT_ID":67541,"ELEMENT_SET_NO":999,"REV_AT_EPOCH":856,"BSTAR":0.0010924,"MEAN_MOTION_DOT":0.00166103,"MEAN_MOTION_DDOT":0}]
